NORAD_CAT_ID,OBJECT_NAME,OBJECT_TYPE,EPOCH,MEAN_MOTION,ECCENTRICITY,INCLINATION,RA_OF_ASC_NODE,ARG_OF_PERICENTER,MEAN_ANOMALY,BSTAR,MEAN_MOTION_DOT,MEAN_MOTION_DDOT,TLE_LINE0,TLE_LINE1,TLE_LINE2,SEMIMAJOR_AXIS,PERIOD,APOGEE,PERIGEE,DECAYED
54059.0,STARLINK-5173,PAYLOAD,2023-10-31 13:33:21,15.08838597,0.0001734,53.2181,245.422,79.3169,280.8018,9.1639e-05,1.171e-05,0.0,0 STARLINK-5173,1 54059U 22136J   23304.56483097  .00001171  00000-0  91639-4 0  9993,2 54059  53.2181 245.4220 0001734  79.3169 280.8018 15.08838597 56994,6917.885,95.438,540.949,538.55,0.0
54059.0,STARLINK-5173,PAYLOAD,2023-10-31 19:54:54,15.0883521,0.0001513,53.2181,244.2332,78.9664,281.1499,0.00016102,2.275e-05,0.0,0 STARLINK-5173,1 54059U 22136J   23304.82979329  .00002275  00000-0  16102-3 0  9997,2 54059  53.2181 244.2332 0001513  78.9664 281.1499 15.08835210 57037,6917.895,95.438,540.807,538.713,0.0
54059.0,STARLINK-5173,PAYLOAD,2023-11-01 13:24:08,15.08844444,0.0001603,53.2177,240.9611,86.3818,273.7357,0.00013124,1.802e-05,0.0,0 STARLINK-5173,1 54059U 22136J   23305.55842789  .00001802  00000-0  13124-3 0  9993,2 54059  53.2177 240.9611 0001603  86.3818 273.7357 15.08844444 57140,6917.867,95.437,540.841,538.623,0.0
54059.0,STARLINK-5173,PAYLOAD,2023-11-01 19:45:40,15.08842169,0.0001686,53.2182,239.7718,87.2022,272.9163,0.00014306,1.99e-05,0.0,0 STARLINK-5173,1 54059U 22136J   23305.82338822  .00001990  00000-0  14306-3 0  9992,2 54059  53.2182 239.7718 0001686  87.2022 272.9163 15.08842169 57663,6917.874,95.437,540.905,538.572,0.0
54059.0,STARLINK-5173,PAYLOAD,2023-11-02 02:07:12,15.08854217,0.0001476,53.2187,238.5815,91.4957,268.6204,0.00023696,3.487e-05,0.0,0 STARLINK-5173,1 54059U 22136J   23306.08833672  .00003487  00000-0  23696-3 0  9999,2 54059  53.2187 238.5815 0001476  91.4957 268.6204 15.08854217 57704,6917.837,95.437,540.723,538.681,0.0
54059.0,STARLINK-5173,PAYLOAD,2023-11-02 13:14:54,15.0884998,0.000132,53.2175,236.5005,83.6497,276.4645,0.00017011,2.421e-05,0.0,0 STARLINK-5173,1 54059U 22136J   23306.55202137  .00002421  00000-0  17011-3 0  9998,2 54059  53.2175 236.5005 0001320  83.6497 276.4645 15.08849980 57291,6917.85,95.437,540.628,538.802,0.0
54059.0,STARLINK-5173,PAYLOAD,2023-11-02 19:36:27,15.08842428,0.0001537,53.218,235.3098,97.9293,262.1874,0.00012943,1.773e-05,0.0,0 STARLINK-5173,1 54059U 22136J   23306.81698482  .00001773  00000-0  12943-3 0  9997,2 54059  53.2180 235.3098 0001537  97.9293 262.1874 15.08842428 57812,6917.873,95.437,540.801,538.675,0.0
54059.0,STARLINK-5173,PAYLOAD,2023-11-03 05:08:45,15.08852897,0.0001625,53.2189,233.5249,100.2136,259.9039,3.3042e-05,2.38e-06,0.0,0 STARLINK-5173,1 54059U 22136J   23307.21441760  .00000238  00000-0  33042-4 0  9996,2 54059  53.2189 233.5249 0001625 100.2136 259.9039 15.08852897 57875,6917.841,95.437,540.83,538.582,0.0
54059.0,STARLINK-5173,PAYLOAD,2023-11-03 19:27:14,15.08835911,0.0001439,53.2185,230.8497,106.5537,253.5614,4.8432e-05,4.83e-06,0.0,0 STARLINK-5173,1 54059U 22136J   23307.81058837  .00000483  00000-0  48432-4 0  9992,2 54059  53.2185 230.8497 0001439 106.5537 253.5614 15.08835911 57960,6917.893,95.438,540.753,538.762,0.0
54059.0,STARLINK-5173,PAYLOAD,2023-11-03 22:38:01,15.08835902,0.0001637,53.2178,230.2511,116.8281,243.2879,4.6265e-05,4.48e-06,0.0,0 STARLINK-5173,1 54059U 22136J   23307.94306818  .00000448  00000-0  46265-4 0  9994,2 54059  53.2178 230.2511 0001637 116.8281 243.2879 15.08835902 57502,6917.893,95.438,540.89,538.625,0.0
54059.0,STARLINK-5173,PAYLOAD,2023-11-04 04:59:33,15.08845274,0.0001182,53.2169,229.066,94.9405,265.1722,-3.38e-05,-8.26e-06,0.0,0 STARLINK-5173,1 54059U 22136J   23308.20802397 -.00000826  00000-0 -33800-4 0  9990,2 54059  53.2169 229.0660 0001182  94.9405 265.1722 15.08845274 58023,6917.864,95.437,540.547,538.912,0.0
54059.0,STARLINK-5173,PAYLOAD,2023-11-04 11:21:06,15.08841624,0.0001276,53.2176,227.8752,95.5787,264.5351,-8.4812e-05,-1.637e-05,0.0,0 STARLINK-5173,1 54059U 22136J   23308.47298732 -.00001637  00000-0 -84812-4 0  9991,2 54059  53.2176 227.8752 0001276  95.5787 264.5351 15.08841624 57589,6917.875,95.437,540.623,538.858,0.0
54059.0,STARLINK-5173,PAYLOAD,2023-11-04 22:28:48,15.08830004,0.0001447,53.218,225.7942,98.6242,261.4914,4.2606e-06,-2.2e-06,0.0,0 STARLINK-5173,1 54059U 22136J   23308.93667668 -.00000220  00000-0  42606-5 0  9992,2 54059  53.2180 225.7942 0001447  98.6242 261.4914 15.08830004 57651,6917.911,95.438,540.777,538.775,0.0
54059.0,STARLINK-5173,PAYLOAD,2023-11-05 11:11:52,15.08853599,0.000128,53.2181,223.4151,80.4467,279.6669,0.00013983,1.939e-05,0.0,0 STARLINK-5173,1 54059U 22136J   23309.46657782  .00001939  00000-0  13983-3 0  9998,2 54059  53.2181 223.4151 0001280  80.4467 279.6669 15.08853599 58217,6917.839,95.437,540.589,538.818,0.0
54059.0,STARLINK-5173,PAYLOAD,2023-11-05 22:19:34,15.08861235,0.0001284,53.216,221.3327,76.3895,283.724,0.00041513,6.329e-05,0.0,0 STARLINK-5173,1 54059U 22136J   23309.93025572  .00006329  00000-0  41513-3 0  9994,2 54059  53.2160 221.3327 0001284  76.3895 283.7240 15.08861235 57800,6917.815,95.436,540.569,538.792,0.0
54059.0,STARLINK-5173,PAYLOAD,2023-11-05 23:54:56,15.08875619,0.0001801,53.2171,221.0367,115.2133,244.9046,0.00057103,8.82e-05,0.0,0 STARLINK-5173,1 54059U 22136J   23309.99648528  .00008820  00000-0  57103-3 0  9992,2 54059  53.2171 221.0367 0001801 115.2133 244.9046 15.08875619 58294,6917.772,95.435,540.882,538.391,0.0
54059.0,STARLINK-5173,PAYLOAD,2023-11-06 11:02:37,15.08886391,0.0001413,53.2163,218.9542,80.221,279.8942,0.00061668,9.552e-05,0.0,0 STARLINK-5173,1 54059U 22136J   23310.46015059  .00009552  00000-0  61668-3 0  9997,2 54059  53.2163 218.9542 0001413  80.2210 279.8942 15.08886391 57886,6917.739,95.435,540.581,538.626,0.0
54059.0,STARLINK-5173,PAYLOAD,2023-11-06 22:10:21,15.08815774,0.0001114,53.2164,216.8742,98.3834,261.7284,-0.00074367,-0.00012096,0.0,0 STARLINK-5173,1 54059U 22136J   23310.92385787 -.00012096  00000-0 -74367-3 0  9995,2 54059  53.2164 216.8742 0001114  98.3834 261.7284 15.08815774 57950,6917.954,95.439,540.59,539.049,0.0
54059.0,STARLINK-5173,PAYLOAD,2023-11-07 02:56:31,15.08796888,0.0001406,53.2162,215.9801,84.8328,275.2825,-0.0011266,-0.00018152,0.0,0 STARLINK-5173,1 54059U 22136J   23311.12259051 -.00018152  00000-0 -11266-2 0  9999,2 54059  53.2162 215.9801 0001406  84.8328 275.2825 15.08796888 58468,6918.012,95.44,540.85,538.904,0.0
54059.0,STARLINK-5173,PAYLOAD,2023-11-07 10:53:27,15.08803833,0.00015,53.2165,214.4949,87.0586,273.0578,-0.00074994,-0.00012192,0.0,0 STARLINK-5173,1 54059U 22136J   23311.45379541 -.00012192  00000-0 -74994-3 0  9998,2 54059  53.2165 214.4949 0001500  87.0586 273.0578 15.08803833 58510,6917.991,95.44,540.894,538.818,0.0
54059.0,STARLINK-5173,PAYLOAD,2023-11-08 02:47:19,15.0882145,0.0001509,53.2164,211.5242,93.3814,266.735,-6.1914e-05,-1.273e-05,0.0,0 STARLINK-5173,1 54059U 22136J   23312.11620107 -.00001273  00000-0 -61914-4 0  9996,2 54059  53.2164 211.5242 0001509  93.3814 266.7350 15.08821450 58619,6917.937,95.439,540.846,538.758,0.0
54059.0,STARLINK-5173,PAYLOAD,2023-11-08 21:51:57,15.08855483,0.0001127,53.2161,207.9576,130.1975,229.9116,0.0011049,0.00017348,0.0,0 STARLINK-5173,1 54059U 22136J   23312.91107793  .00017348  00000-0  11049-2 0  9995,2 54059  53.2161 207.9576 0001127 130.1975 229.9116 15.08855483 58253,6917.833,95.437,540.478,538.918,0.0
54059.0,STARLINK-5173,PAYLOAD,2023-11-08 23:27:19,15.08876423,0.0001454,53.2172,207.6556,106.0587,254.0565,0.0012759,0.00020096,0.0,0 STARLINK-5173,1 54059U 22136J   23312.97730414  .00020096  00000-0  12759-2 0  9996,2 54059  53.2172 207.6556 0001454 106.0587 254.0565 15.08876423 58742,6917.769,95.435,540.64,538.628,0.0
54059.0,STARLINK-5173,PAYLOAD,2023-11-09 20:07:21,15.08845463,0.0001831,53.2167,203.7935,103.6292,256.4904,0.0003006,4.5e-05,0.0,0 STARLINK-5173,1 54059U 22136J   23313.83843906  .00004500  00000-0  30060-3 0  9991,2 54059  53.2167 203.7935 0001831 103.6292 256.4904 15.08845463 58876,6917.864,95.437,540.995,538.462,0.0
54059.0,STARLINK-5173,PAYLOAD,2023-11-09 23:18:07,15.08831537,0.0001659,53.2173,203.1985,76.1187,283.999,6.5235e-05,7.5e-06,0.0,0 STARLINK-5173,1 54059U 22136J   23313.97092587  .00000750  00000-0  65235-4 0  9993,2 54059  53.2173 203.1985 0001659  76.1187 283.9990 15.08831537 58414,6917.906,95.438,540.919,538.624,0.0
54059.0,STARLINK-5173,PAYLOAD,2023-11-10 19:58:07,15.08857965,0.0001624,53.2164,199.3304,82.1619,277.9557,-0.00036429,-6.084e-05,0.0,0 STARLINK-5173,1 54059U 22136J   23314.83202921 -.00006084  00000-0 -36429-3 0  9994,2 54059  53.2164 199.3304 0001624  82.1619 277.9557 15.08857965 59027,6917.825,95.436,540.814,538.567,0.0
54059.0,STARLINK-5173,PAYLOAD,2023-11-10 21:33:30,15.08858356,0.0001678,53.216,199.0345,79.909,280.2092,-0.00033799,-5.666e-05,0.0,0 STARLINK-5173,1 54059U 22136J   23314.89826830 -.00005666  00000-0 -33799-3 0  9993,2 54059  53.2160 199.0345 0001678  79.9090 280.2092 15.08858356 58554,6917.824,95.436,540.85,538.528,0.0
54059.0,STARLINK-5173,PAYLOAD,2023-11-10 23:08:53,15.08860496,0.0001711,53.2167,198.7353,86.1029,274.0158,-0.00026616,-4.524e-05,0.0,0 STARLINK-5173,1 54059U 22136J   23314.96450604 -.00004524  00000-0 -26616-3 0  9995,2 54059  53.2167 198.7353 0001711  86.1029 274.0158 15.08860496 58569,6917.818,95.436,540.866,538.499,0.0
54059.0,STARLINK-5173,PAYLOAD,2023-11-11 19:48:55,15.08835473,0.0001903,53.2173,194.8698,100.4027,259.718,0.00015487,2.177e-05,0.0,0 STARLINK-5173,1 54059U 22136J   23315.82563926  .00002177  00000-0  15487-3 0  9997,2 54059  53.2173 194.8698 0001903 100.4027 259.7180 15.08835473 59176,6917.894,95.438,541.076,538.443,0.0
54059.0,STARLINK-5173,PAYLOAD,2023-11-11 22:59:41,15.08836787,0.0001719,53.2164,194.2767,88.697,271.4219,0.00017017,2.421e-05,0.0,0 STARLINK-5173,1 54059U 22136J   23315.95811963  .00002421  00000-0  17017-3 0  9991,2 54059  53.2164 194.2767 0001719  88.6970 271.4219 15.08836787 58718,6917.89,95.438,540.944,538.566,0.0
